QIANFAN-57              
1 62787U 25016C   25197.21398644  .00000142  00000+0  20181-3 0  9996
2 62787  88.9868 118.6009 0017404  62.7536 297.5386 13.50957596 27019
QIANFAN-58              
1 62788U 25016D   25196.88893596  .00000142  00000+0  20158-3 0  9999
2 62788  88.9837 118.5124 0016208  59.1105 301.1638 13.50950993 27012
QIANFAN-59              
1 62789U 25016E   25197.49391511  .00000130  00000+0  18298-3 0  9997
2 62789  88.9861 118.4854 0017125  60.2875 299.9978 13.50955588 27099
QIANFAN-60              
1 62790U 25016F   25197.48557395  .00000136  00000+0  19179-3 0  9997
2 62790  88.9842 118.4943 0017572  58.2277 302.0584 13.50963887 27076
QIANFAN-61              
1 62791U 25016G   25197.49801612  .00000133  00000+0  18700-3 0  9999
2 62791  88.9910 118.5491 0016991  57.2154 303.0632 13.50953544 27095
QIANFAN-62              
1 62792U 25016H   25197.20568676  .00000130  00000+0  18265-3 0  9992
2 62792  88.9856 118.5283 0018403  58.0089 302.2847 13.50958516 27048
QIANFAN-63              
1 62793U 25016J   25197.51431038  .00000137  00000+0  19358-3 0  9999
2 62793  88.9862 118.4353 0018240  61.2330 299.0650 13.50958439 27125
QIANFAN-64              
1 62794U 25016K   25197.20982309  .00000131  00000+0  18470-3 0  9996
2 62794  88.9850 118.4667 0016026  56.8441 303.4245 13.50958098 27079
